{
  "norad_id": 45625,
  "name": "GAOFEN-9 02",
  "history": [
    {
      "epoch": "2026-04-10T05:37:39.727776Z",
      "apogee_km": 498.04591659279686,
      "perigee_km": 482.18657039331174,
      "latitude_deg": -2.3686602630600915e-05,
      "longitude_deg": -26.13288123441789,
      "height_km": 487.9920983388513,
      "semi_major_axis_km": 6868.2532434930545,
      "eccentricity": 0.00115454,
      "inclination_deg": 97.5674,
      "raan_deg": 256.7539,
      "arg_perigee_deg": 311.2021,
      "mean_anomaly_deg": 48.822,
      "mean_motion_rev_day": 15.25222882
    },
    {
      "epoch": "2026-04-11T20:59:27.796128Z",
      "apogee_km": 497.8458311828226,
      "perigee_km": 482.2605340204627,
      "latitude_deg": -3.833074313203443e-05,
      "longitude_deg": 103.45913727628802,
      "height_km": 488.6694400675394,
      "semi_major_axis_km": 6868.190182601642,
      "eccentricity": 0.0011346,
      "inclination_deg": 97.5673,
      "raan_deg": 258.4128,
      "arg_perigee_deg": 305.1228,
      "mean_anomaly_deg": 54.8945,
      "mean_motion_rev_day": 15.25243888
    },
    {
      "epoch": "2026-04-13T06:03:21.788064Z",
      "apogee_km": 497.8275834392307,
      "perigee_km": 482.2445229622854,
      "latitude_deg": -3.566704877027779e-05,
      "longitude_deg": -32.480861238204575,
      "height_km": 489.29002312928276,
      "semi_major_axis_km": 6868.173053200758,
      "eccentricity": 0.00113444,
      "inclination_deg": 97.5671,
      "raan_deg": 259.8057,
      "arg_perigee_deg": 299.5774,
      "mean_anomaly_deg": 60.4332,
      "mean_motion_rev_day": 15.25249594
    },
    {
      "epoch": "2026-04-14T21:25:07.629888Z",
      "apogee_km": 497.7450532445673,
      "perigee_km": 482.2134951021508,
      "latitude_deg": 8.912061750192679e-05,
      "longitude_deg": 97.12034642643728,
      "height_km": 490.00677517472405,
      "semi_major_axis_km": 6868.116274173359,
      "eccentricity": 0.0011307,
      "inclination_deg": 97.5671,
      "raan_deg": 261.4645,
      "arg_perigee_deg": 293.3071,
      "mean_anomaly_deg": 66.6977,
      "mean_motion_rev_day": 15.25268508
    },
    {
      "epoch": "2026-04-15T21:02:10.818240Z",
      "apogee_km": 497.63909362295635,
      "perigee_km": 482.297120434876,
      "latitude_deg": 2.4023908597178503e-05,
      "longitude_deg": 102.88173373509665,
      "height_km": 490.5232693352493,
      "semi_major_axis_km": 6868.105107028916,
      "eccentricity": 0.0011169,
      "inclination_deg": 97.567,
      "raan_deg": 262.4591,
      "arg_perigee_deg": 289.3768,
      "mean_anomaly_deg": 70.6262,
      "mean_motion_rev_day": 15.25272228
    },
    {
      "epoch": "2026-04-16T20:39:13.703328Z",
      "apogee_km": 497.6398654368959,
      "perigee_km": 482.285541739554,
      "latitude_deg": 1.8411855224748896e-05,
      "longitude_deg": 108.64528020182617,
      "height_km": 491.03478065307297,
      "semi_major_axis_km": 6868.099703588225,
      "eccentricity": 0.0011178,
      "inclination_deg": 97.5671,
      "raan_deg": 263.4546,
      "arg_perigee_deg": 285.3192,
      "mean_anomaly_deg": 74.681,
      "mean_motion_rev_day": 15.25274028
    }
  ]
}